{
"type": "FeatureCollection",
"name": "black_river_amendments",
"features": [
{ "type": "Feature", "properties": { "lot_id": "BR1", "lpa": "Black River", "location_desc": "vicinity of Lewis Lane", "zone_before": "Wetland and Mixed Use: Office/Commercial/Industry-Light", "zone_after": "Recreational", "source": "St. Elizabeth PDO 2018 Confirmation Notification 2024, Schedule D.3.b", "source_map": "Inset No. 1", "digitization_confidence": "approximate -- hand-traced on precision-grade (R2=1.0) transform" }, "geometry": { "type": "Polygon", "coordinates": [ [ [ 659805.331799598876387, 654380.721687632263638 ], [ 660377.491565495030954, 654359.132852814509533 ], [ 660323.514229089720175, 654106.543485447531566 ], [ 659854.99094909185078, 654091.431301075033844 ], [ 659805.331799598876387, 654380.721687632263638 ] ] ] } },
{ "type": "Feature", "properties": { "lot_id": "BR2", "lpa": "Black River", "location_desc": "corner of Bloomsdale Road and High Street", "zone_before": "Residential", "zone_after": "Mixed Use: Office/Commercial/Residential", "source": "St. Elizabeth PDO 2018 Confirmation Notification 2024, Schedule D.3.c", "source_map": "Inset No. 1.1", "digitization_confidence": "approximate -- hand-traced on APPROXIMATE transform (~40-50m uncertainty)" }, "geometry": { "type": "Polygon", "coordinates": [ [ [ 659071.198086463613436, 653361.678249792661518 ], [ 659125.809929613373242, 653364.853356952429749 ], [ 659183.914390638936311, 653254.677138505154289 ], [ 659155.973447632044554, 653194.350102467695251 ], [ 659082.945982955163345, 653199.112763207405806 ], [ 659071.198086463613436, 653361.678249792661518 ] ] ] } },
{ "type": "Feature", "properties": { "lot_id": "BR3", "lpa": "Black River", "location_desc": "intersection of Exchange Drive and High Street", "zone_before": "Mixed Use: Office/Commercial/Residential", "zone_after": "Institutional", "source": "St. Elizabeth PDO 2018 Confirmation Notification 2024, Schedule D.3.d", "source_map": "Inset No. 1.1", "digitization_confidence": "approximate -- hand-traced on APPROXIMATE transform (~40-50m uncertainty)" }, "geometry": { "type": "Polygon", "coordinates": [ [ [ 659175.024090591236018, 653286.428210103767924 ], [ 659297.265716246096417, 653351.517906881053932 ], [ 659382.993609562516212, 653286.428210103767924 ], [ 659382.993609562516212, 653189.587441727868281 ], [ 659206.775162189966068, 653176.887013088329695 ], [ 659175.024090591236018, 653286.428210103767924 ] ] ] } }
]
}
